[{"OBJECT_NAME":"STARLINK-32125","OBJECT_ID":"2024-131F","EPOCH":"2026-03-09T05:38:26.914272","MEAN_MOTION":15.301873,"ECCENTRICITY":0.00012418,"INCLINATION":53.1613,"RA_OF_ASC_NODE":54.2172,"ARG_OF_PERICENTER":79.5558,"MEAN_ANOMALY":280.5582,"EPHEMERIS_TYPE":0,"CLASSIFICATION_TYPE":"U","NORAD_CAT_ID":60260,"ELEMENT_SET_NO":999,"REV_AT_EPOCH":9165,"BSTAR":-5.809984e-6,"MEAN_MOTION_DOT":-5.31e-6,"MEAN_MOTION_DDOT":0},{"OBJECT_NAME":"OBJECT BE","OBJECT_ID":"2025-313BE","EPOCH":"2026-03-09T16:43:59.380320","MEAN_MOTION":15.29801687,"ECCENTRICITY":0.00072083,"INCLINATION":97.3989,"RA_OF_ASC_NODE":145.3568,"ARG_OF_PERICENTER":335.3714,"MEAN_ANOMALY":24.7181,"EPHEMERIS_TYPE":0,"CLASSIFICATION_TYPE":"U","NORAD_CAT_ID":67482,"ELEMENT_SET_NO":999,"REV_AT_EPOCH":797,"BSTAR":0.0026504328,"MEAN_MOTION_DOT":0.00077178,"MEAN_MOTION_DDOT":0}]
