STARLINK-32125          
1 60260U 24131F   26068.23503373 -.00000531  00000+0 -58100-5 0  9992
2 60260  53.1613  54.2172 0001241  79.5558 280.5582 15.30187300 91652
2025-313BE              
1 67482U 25313BE  26068.69721505  .00077178  00000+0  26504-2 0  9996
2 67482  97.3989 145.3568 0007208 335.3714  24.7181 15.29801687  7972
